[{"OBJECT_NAME":"STARLINK-1569","OBJECT_ID":"2020-055N","EPOCH":"2026-03-10T00:00:02.999808","MEAN_MOTION":15.18469415,"ECCENTRICITY":0.00021467,"INCLINATION":53.1037,"RA_OF_ASC_NODE":124.869,"ARG_OF_PERICENTER":70.9863,"MEAN_ANOMALY":37.8804,"EPHEMERIS_TYPE":0,"CLASSIFICATION_TYPE":"U","NORAD_CAT_ID":46039,"ELEMENT_SET_NO":999,"REV_AT_EPOCH":579,"BSTAR":0.0056656927,"MEAN_MOTION_DOT":0.00119854,"MEAN_MOTION_DDOT":0},{"OBJECT_NAME":"OBJECT D","OBJECT_ID":"2024-110D","EPOCH":"2026-03-09T23:35:59.225568","MEAN_MOTION":15.22946484,"ECCENTRICITY":0.00091951,"INCLINATION":97.5701,"RA_OF_ASC_NODE":165.3055,"ARG_OF_PERICENTER":232.8206,"MEAN_ANOMALY":127.2191,"EPHEMERIS_TYPE":0,"CLASSIFICATION_TYPE":"U","NORAD_CAT_ID":60015,"ELEMENT_SET_NO":999,"REV_AT_EPOCH":9715,"BSTAR":0.00037001945,"MEAN_MOTION_DOT":8.627e-5,"MEAN_MOTION_DDOT":0}]
